{
  "type": "FeatureCollection",
  "features": [
    {
      "type": "Feature",
      "properties": {
        "id": "cruiser_dock",
        "name_hr": "Pristanište kruzera",
        "name_en": "Cruise Dock",
        "role": "origin",
        "note": "Distance origin only. Not tracked as a destination zone; passengers materialise here and fan out to the 5 zones below."
      },
      "geometry": {
        "type": "Polygon",
        "coordinates": [
          [
            [16.436498, 43.501254],
            [16.436691, 43.500774],
            [16.438702, 43.500704],
            [16.441163, 43.500412],
            [16.443222, 43.500109],
            [16.443013, 43.500774],
            [16.439844, 43.501113],
            [16.436498, 43.501254]
          ]
        ]
      }
    },
    {
      "type": "Feature",
      "properties": {
        "id": "port",
        "name_hr": "Trajektna luka i lučko područje",
        "name_en": "Port & Ferry Terminal",
        "type": "transport_hub",
        "access_mode": "walking"
      },
      "geometry": {
        "type": "Polygon",
        "coordinates": [
          [
            [16.441437, 43.506139],
            [16.441878, 43.505321],
            [16.441467, 43.505219],
            [16.441788, 43.504638],
            [16.442179, 43.504761],
            [16.44268, 43.503452],
            [16.441146, 43.503409],
            [16.441186, 43.50319],
            [16.439672, 43.503176],
            [16.439703, 43.502594],
            [16.441668, 43.50271],
            [16.441788, 43.502565],
            [16.441417, 43.501474],
            [16.442068, 43.501463],
            [16.44259, 43.502634],
            [16.443462, 43.502794],
            [16.444625, 43.502343],
            [16.442429, 43.506321],
            [16.441437, 43.506139]
          ]
        ]
      }
    },
    {
      "type": "Feature",
      "properties": {
        "id": "old_town",
        "name_hr": "Stari grad",
        "name_en": "Old Town",
        "type": "historic_center",
        "access_mode": "walking"
      },
      "geometry": {
        "type": "Polygon",
        "coordinates": [
          [
            [16.436598, 43.511278],
            [16.436499, 43.509994],
            [16.435726, 43.508649],
            [16.435737, 43.507891],
            [16.436701, 43.50803],
            [16.440423, 43.506798],
            [16.440624, 43.50722],
            [16.442208, 43.507081],
            [16.442284, 43.50922],
            [16.440528, 43.510785],
            [16.439383, 43.510397],
            [16.438667, 43.510383],
            [16.438457, 43.511036],
            [16.436598, 43.511278]
          ]
        ]
      }
    },
    {
      "type": "Feature",
      "properties": {
        "id": "west_coast",
        "name_hr": "Zapadna obala",
        "name_en": "West Coast",
        "type": "tourist_promenade",
        "access_mode": "walking"
      },
      "geometry": {
        "type": "Polygon",
        "coordinates": [
          [
            [16.433455, 43.507176],
            [16.43281, 43.507135],
            [16.428302, 43.503181],
            [16.428632, 43.502965],
            [16.430674, 43.504968],
            [16.431217, 43.505315],
            [16.431646, 43.505601],
            [16.433181, 43.506418],
            [16.433597, 43.507185],
            [16.433455, 43.507176]
          ]
        ]
      }
    },
    {
      "type": "Feature",
      "properties": {
        "id": "beaches",
        "name_hr": "Bačvice i Ovčice",
        "name_en": "Bačvice & Ovčice Beaches",
        "type": "beach",
        "access_mode": "walking"
      },
      "geometry": {
        "type": "Polygon",
        "coordinates": [
          [
            [16.447541, 43.502752],
            [16.446313, 43.502668],
            [16.446141, 43.502182],
            [16.444986, 43.501432],
            [16.44519, 43.500919],
            [16.445445, 43.501143],
            [16.446772, 43.502186],
            [16.44805, 43.502307],
            [16.448399, 43.501781],
            [16.448869, 43.501468],
            [16.449403, 43.500712],
            [16.450084, 43.50044],
            [16.45161, 43.500187],
            [16.451621, 43.5004],
            [16.451405, 43.500609],
            [16.449978, 43.500825],
            [16.449759, 43.501581],
            [16.448614, 43.502174],
            [16.448321, 43.502764],
            [16.447541, 43.502752]
          ]
        ]
      }
    },
    {
      "type": "Feature",
      "properties": {
        "id": "malls",
        "name_hr": "Mall of Split",
        "name_en": "Mall of Split",
        "type": "indoor_shopping",
        "access_mode": "vehicular"
      },
      "geometry": {
        "type": "Polygon",
        "coordinates": [
          [
            [16.483436, 43.520089],
            [16.482696, 43.519303],
            [16.482197, 43.518741],
            [16.48218, 43.518417],
            [16.484142, 43.517705],
            [16.485881, 43.518729],
            [16.486035, 43.51989],
            [16.484624, 43.520277],
            [16.483436, 43.520089]
          ]
        ]
      }
    }
  ]
}
